CORVUS BC1              
1 42847U 17042Y   18180.32364833  .00000142  00000-0  19305-4 0  9998
2 42847  97.5966  82.8103 0010009 147.2482 212.9360 14.91924720 52176
SILU-1 (SILKROAD 1)     
1 42903U 17021F   18181.11260355  .00021840  00000-0  16212-3 0  9991
2 42903  42.7774 249.8915 0012234  26.7063  52.8699 15.72314192 51960
MIRATA                  
1 43015U 17073C   18180.81495996  .00000614  00000-0  54529-4 0  9990
2 43015  97.7045 111.3039 0256796 230.2448 127.5889 14.78163806 33003
MAKERSAT 0              
1 43016U 17073D   18180.79970969  .00000369  00000-0  34992-4 0  9995
2 43016  97.7074 111.4103 0258190 230.3344 127.4838 14.78168559 32995
ASTERIA                 
1 43020U 98067NH  18180.83296736  .00011855  00000-0  15191-3 0  9991
2 43020  51.6422 310.8100 0002112 215.2346 144.8508 15.59639035 34466
DELLINGR (RBLE)         
1 43021U 98067NJ  18180.83361431  .00006049  00000-0  86548-4 0  9991
2 43021  51.6402 312.2866 0002114 202.4218 157.6682 15.57728263 34441
OSIRIS-3U               
1 43027U 98067NL  18180.60546989  .00024548  00000-0  24852-3 0  9998
2 43027  51.6384 307.7456 0002721 215.2612 144.8204 15.65126015 34369
AEROCUBE 7B             
1 43042U 17071F   18180.58846068  .00003081  00000-0  88808-4 0  9990
2 43042  51.6397 341.0984 0004612 312.5284  47.5310 15.38941294 31519
AEROCUBE 7C             
1 43043U 17071G   18180.58844051  .00003208  00000-0  92033-4 0  9997
2 43043  51.6400 341.1026 0004675 315.2188  44.8418 15.38946628 31486
CHEFSAT                 
1 43044U 17071H   18180.46025786  .00005353  00000-0  14233-3 0  9999
2 43044  51.6402 341.0179 0004605 313.7914  46.2689 15.39892232 31477
ASGARDIA 1              
1 43049U 17071N   18180.43826505  .00002741  00000-0  79777-4 0  9992
2 43049  51.6402 341.6064 0002302 341.6178  18.4723 15.39077481 31465
ISARA                   
1 43050U 17071P   18180.46337311  .00004713  00000-0  12717-3 0  9990
2 43050  51.6398 341.0350 0002110 336.6004  23.4884 15.39729044 31476
FAUNA                   
1 43052U 17071R   18180.49062773  .00002357  00000-0  69728-4 0  9999
2 43052  51.6402 341.2141 0002142 338.2072  21.8821 15.39214594 31463
CORVUS BC3              
1 43118U 18004H   18180.23698693  .00000877  00000-0  41172-4 0  9995
2 43118  97.5323 242.8506 0012023  58.2411 301.9995 15.22272289 25546
MICROMAS-2A             
1 43131U 18004W   18180.78403237  .00001822  00000-0  80807-4 0  9997
2 43131  97.5329 243.5159 0011223  60.1874 300.0477 15.22854820 25637
GOMX4-B                 
1 43196U 18015E   18180.42536921  .00001508  00000-0  65671-4 0  9991
2 43196  97.3474 309.1013 0020310 111.9378 248.4021 15.23570644 22396
GOMX4-A                 
1 43197U 18015F   18180.70403972  .00000658  00000-0  30204-4 0  9991
2 43197  97.3484 309.3804 0020869 112.0205 354.8232 15.23675110 22444
UBAKUSAT                
1 43466U 98067NP  18180.63458035  .00009318  00000-0  13849-3 0  9994
2 43466  51.6407 316.2018 0000403 145.1863 214.9155 15.55930877  7648
1KUNS-PF                
1 43467U 98067NQ  18180.63532260  .00007212  00000-0  10938-3 0  9995
2 43467  51.6409 316.2080 0002678 171.9344 188.1691 15.55783048  7640
BATSU-CS1 (IRAZU)       
1 43468U 98067NR  18180.56690292  .00010660  00000-0  15631-3 0  9994
2 43468  51.6406 316.4999 0000305 129.9788 230.1230 15.56122730107610
